[{"OBJECT_NAME":"STARLINK-30106","OBJECT_ID":"2023-056C","EPOCH":"2026-03-06T14:00:01.000224","MEAN_MOTION":15.21140376,"ECCENTRICITY":0.00018564,"INCLINATION":42.9996,"RA_OF_ASC_NODE":225.9878,"ARG_OF_PERICENTER":272.2144,"MEAN_ANOMALY":334.3627,"EPHEMERIS_TYPE":0,"CLASSIFICATION_TYPE":"U","NORAD_CAT_ID":56288,"ELEMENT_SET_NO":999,"REV_AT_EPOCH":582,"BSTAR":0.064773017,"MEAN_MOTION_DOT":0.01624205,"MEAN_MOTION_DDOT":0},{"OBJECT_NAME":"STARLINK-30095","OBJECT_ID":"2023-056D","EPOCH":"2026-03-06T14:00:01.000224","MEAN_MOTION":15.20724163,"ECCENTRICITY":0.00011753,"INCLINATION":43.0001,"RA_OF_ASC_NODE":200.4228,"ARG_OF_PERICENTER":315.9955,"MEAN_ANOMALY":40.7977,"EPHEMERIS_TYPE":0,"CLASSIFICATION_TYPE":"U","NORAD_CAT_ID":56289,"ELEMENT_SET_NO":999,"REV_AT_EPOCH":583,"BSTAR":0.076401595,"MEAN_MOTION_DOT":0.01890903,"MEAN_MOTION_DDOT":0},{"OBJECT_NAME":"STARLINK-30103","OBJECT_ID":"2023-056E","EPOCH":"2026-03-06T14:00:01.000224","MEAN_MOTION":15.21827612,"ECCENTRICITY":0.0001368,"INCLINATION":43.0009,"RA_OF_ASC_NODE":226.1606,"ARG_OF_PERICENTER":272.4299,"MEAN_ANOMALY":261.3775,"EPHEMERIS_TYPE":0,"CLASSIFICATION_TYPE":"U","NORAD_CAT_ID":56290,"ELEMENT_SET_NO":999,"REV_AT_EPOCH":582,"BSTAR":0.045308203,"MEAN_MOTION_DOT":0.01138887,"MEAN_MOTION_DDOT":0},{"OBJECT_NAME":"STARLINK-30113","OBJECT_ID":"2023-056F","EPOCH":"2026-03-06T14:00:01.000224","MEAN_MOTION":15.21933591,"ECCENTRICITY":0.00018678,"INCLINATION":42.9995,"RA_OF_ASC_NODE":226.0147,"ARG_OF_PERICENTER":270.1074,"MEAN_ANOMALY":321.5697,"EPHEMERIS_TYPE":0,"CLASSIFICATION_TYPE":"U","NORAD_CAT_ID":56291,"ELEMENT_SET_NO":999,"REV_AT_EPOCH":578,"BSTAR":0.065822898,"MEAN_MOTION_DOT":0.01667652,"MEAN_MOTION_DDOT":0},{"OBJECT_NAME":"STARLINK-30098","OBJECT_ID":"2023-056G","EPOCH":"2026-03-06T14:00:01.000224","MEAN_MOTION":15.21218004,"ECCENTRICITY":0.00015128,"INCLINATION":43.0008,"RA_OF_ASC_NODE":226.173,"ARG_OF_PERICENTER":272.1805,"MEAN_ANOMALY":251.5553,"EPHEMERIS_TYPE":0,"CLASSIFICATION_TYPE":"U","NORAD_CAT_ID":56292,"ELEMENT_SET_NO":999,"REV_AT_EPOCH":572,"BSTAR":0.047697496,"MEAN_MOTION_DOT":0.01181427,"MEAN_MOTION_DDOT":0},{"OBJECT_NAME":"STARLINK-30090","OBJECT_ID":"2023-056H","EPOCH":"2026-03-06T14:00:01.000224","MEAN_MOTION":15.23979631,"ECCENTRICITY":0.00013557,"INCLINATION":43.0009,"RA_OF_ASC_NODE":226.5981,"ARG_OF_PERICENTER":284.5096,"MEAN_ANOMALY":54.7304,"EPHEMERIS_TYPE":0,"CLASSIFICATION_TYPE":"U","NORAD_CAT_ID":56293,"ELEMENT_SET_NO":999,"REV_AT_EPOCH":577,"BSTAR":0.057785054,"MEAN_MOTION_DOT":0.0156985,"MEAN_MOTION_DDOT":0},{"OBJECT_NAME":"STARLINK-30049","OBJECT_ID":"2023-056J","EPOCH":"2026-03-06T14:00:01.000224","MEAN_MOTION":15.19937291,"ECCENTRICITY":0.00017544,"INCLINATION":42.9998,"RA_OF_ASC_NODE":226.4008,"ARG_OF_PERICENTER":287.4811,"MEAN_ANOMALY":112.4772,"EPHEMERIS_TYPE":0,"CLASSIFICATION_TYPE":"U","NORAD_CAT_ID":56294,"ELEMENT_SET_NO":999,"REV_AT_EPOCH":557,"BSTAR":0.039443445,"MEAN_MOTION_DOT":0.00935691,"MEAN_MOTION_DDOT":0},{"OBJECT_NAME":"STARLINK-30083","OBJECT_ID":"2023-056K","EPOCH":"2026-03-06T14:00:01.000224","MEAN_MOTION":15.1795277,"ECCENTRICITY":0.00011336,"INCLINATION":43.0009,"RA_OF_ASC_NODE":200.6803,"ARG_OF_PERICENTER":278.4857,"MEAN_ANOMALY":324.3685,"EPHEMERIS_TYPE":0,"CLASSIFICATION_TYPE":"U","NORAD_CAT_ID":56295,"ELEMENT_SET_NO":999,"REV_AT_EPOCH":577,"BSTAR":0.03724986,"MEAN_MOTION_DOT":0.00826725,"MEAN_MOTION_DDOT":0},{"OBJECT_NAME":"STARLINK-30089","OBJECT_ID":"2023-056L","EPOCH":"2026-03-06T14:00:01.000224","MEAN_MOTION":15.26731616,"ECCENTRICITY":0.00013234,"INCLINATION":43.0011,"RA_OF_ASC_NODE":186.6706,"ARG_OF_PERICENTER":273.4703,"MEAN_ANOMALY":21.6325,"EPHEMERIS_TYPE":0,"CLASSIFICATION_TYPE":"U","NORAD_CAT_ID":56296,"ELEMENT_SET_NO":999,"REV_AT_EPOCH":577,"BSTAR":0.00053757347,"MEAN_MOTION_DOT":0.00014184,"MEAN_MOTION_DDOT":0},{"OBJECT_NAME":"STARLINK-30086","OBJECT_ID":"2023-056M","EPOCH":"2026-03-06T14:00:01.000224","MEAN_MOTION":15.26714262,"ECCENTRICITY":0.0001209,"INCLINATION":43.0015,"RA_OF_ASC_NODE":226.2254,"ARG_OF_PERICENTER":276.9168,"MEAN_ANOMALY":194.6588,"EPHEMERIS_TYPE":0,"CLASSIFICATION_TYPE":"U","NORAD_CAT_ID":56297,"ELEMENT_SET_NO":999,"REV_AT_EPOCH":583,"BSTAR":-0.00010205054,"MEAN_MOTION_DOT":-2.994e-5,"MEAN_MOTION_DDOT":0},{"OBJECT_NAME":"STARLINK-30109","OBJECT_ID":"2023-056N","EPOCH":"2026-03-06T14:00:01.000224","MEAN_MOTION":15.21367296,"ECCENTRICITY":9.071e-5,"INCLINATION":42.9991,"RA_OF_ASC_NODE":226.0476,"ARG_OF_PERICENTER":269.8158,"MEAN_ANOMALY":279.7708,"EPHEMERIS_TYPE":0,"CLASSIFICATION_TYPE":"U","NORAD_CAT_ID":56298,"ELEMENT_SET_NO":999,"REV_AT_EPOCH":583,"BSTAR":0.03821174,"MEAN_MOTION_DOT":0.009459,"MEAN_MOTION_DDOT":0},{"OBJECT_NAME":"STARLINK-30108","OBJECT_ID":"2023-056P","EPOCH":"2026-03-06T10:36:30.730176","MEAN_MOTION":15.11972554,"ECCENTRICITY":0.00014045,"INCLINATION":42.9982,"RA_OF_ASC_NODE":214.1616,"ARG_OF_PERICENTER":260.4649,"MEAN_ANOMALY":99.6039,"EPHEMERIS_TYPE":0,"CLASSIFICATION_TYPE":"U","NORAD_CAT_ID":56299,"ELEMENT_SET_NO":999,"REV_AT_EPOCH":15975,"BSTAR":-0.00012582916,"MEAN_MOTION_DOT":-2.419e-5,"MEAN_MOTION_DDOT":0},{"OBJECT_NAME":"STARLINK-30104","OBJECT_ID":"2023-056Q","EPOCH":"2026-03-06T14:00:01.000224","MEAN_MOTION":15.17976582,"ECCENTRICITY":0.00010332,"INCLINATION":43.0006,"RA_OF_ASC_NODE":226.2158,"ARG_OF_PERICENTER":280.6437,"MEAN_ANOMALY":228.9567,"EPHEMERIS_TYPE":0,"CLASSIFICATION_TYPE":"U","NORAD_CAT_ID":56300,"ELEMENT_SET_NO":999,"REV_AT_EPOCH":572,"BSTAR":0.08131737,"MEAN_MOTION_DOT":0.01855816,"MEAN_MOTION_DDOT":0},{"OBJECT_NAME":"STARLINK-30101","OBJECT_ID":"2023-056R","EPOCH":"2026-03-06T14:00:01.000224","MEAN_MOTION":15.23585399,"ECCENTRICITY":0.00020555,"INCLINATION":42.9995,"RA_OF_ASC_NODE":225.9557,"ARG_OF_PERICENTER":271.3333,"MEAN_ANOMALY":342.7791,"EPHEMERIS_TYPE":0,"CLASSIFICATION_TYPE":"U","NORAD_CAT_ID":56301,"ELEMENT_SET_NO":999,"REV_AT_EPOCH":578,"BSTAR":0.058555564,"MEAN_MOTION_DOT":0.01572446,"MEAN_MOTION_DDOT":0},{"OBJECT_NAME":"STARLINK-30111","OBJECT_ID":"2023-056S","EPOCH":"2026-03-06T14:00:01.000224","MEAN_MOTION":15.22624088,"ECCENTRICITY":0.00019408,"INCLINATION":42.9998,"RA_OF_ASC_NODE":225.8547,"ARG_OF_PERICENTER":272.7778,"MEAN_ANOMALY":356.1561,"EPHEMERIS_TYPE":0,"CLASSIFICATION_TYPE":"U","NORAD_CAT_ID":56302,"ELEMENT_SET_NO":999,"REV_AT_EPOCH":578,"BSTAR":0.057969284,"MEAN_MOTION_DOT":0.01507101,"MEAN_MOTION_DDOT":0},{"OBJECT_NAME":"STARLINK-30099","OBJECT_ID":"2023-056U","EPOCH":"2026-03-06T14:00:01.000224","MEAN_MOTION":15.20774616,"ECCENTRICITY":0.00015337,"INCLINATION":43.0011,"RA_OF_ASC_NODE":225.9602,"ARG_OF_PERICENTER":287.1637,"MEAN_ANOMALY":291.7718,"EPHEMERIS_TYPE":0,"CLASSIFICATION_TYPE":"U","NORAD_CAT_ID":56304,"ELEMENT_SET_NO":999,"REV_AT_EPOCH":583,"BSTAR":0.031352461,"MEAN_MOTION_DOT":0.00759293,"MEAN_MOTION_DDOT":0},{"OBJECT_NAME":"STARLINK-30094","OBJECT_ID":"2023-056V","EPOCH":"2026-03-06T14:00:01.000224","MEAN_MOTION":15.23076501,"ECCENTRICITY":0.00017192,"INCLINATION":43,"RA_OF_ASC_NODE":225.8196,"ARG_OF_PERICENTER":286.5532,"MEAN_ANOMALY":345.9011,"EPHEMERIS_TYPE":0,"CLASSIFICATION_TYPE":"U","NORAD_CAT_ID":56305,"ELEMENT_SET_NO":999,"REV_AT_EPOCH":583,"BSTAR":0.061359953,"MEAN_MOTION_DOT":0.01628941,"MEAN_MOTION_DDOT":0},{"OBJECT_NAME":"STARLINK-30112","OBJECT_ID":"2023-056W","EPOCH":"2026-03-06T14:00:01.000224","MEAN_MOTION":15.22155064,"ECCENTRICITY":0.00017235,"INCLINATION":42.9994,"RA_OF_ASC_NODE":225.9047,"ARG_OF_PERICENTER":273.7305,"MEAN_ANOMALY":333.3612,"EPHEMERIS_TYPE":0,"CLASSIFICATION_TYPE":"U","NORAD_CAT_ID":56306,"ELEMENT_SET_NO":999,"REV_AT_EPOCH":578,"BSTAR":0.056179435,"MEAN_MOTION_DOT":0.01434103,"MEAN_MOTION_DDOT":0},{"OBJECT_NAME":"STARLINK-6038","OBJECT_ID":"2023-058A","EPOCH":"2026-03-06T08:15:02.048544","MEAN_MOTION":15.05642962,"ECCENTRICITY":0.00019653,"INCLINATION":97.6048,"RA_OF_ASC_NODE":67.9259,"ARG_OF_PERICENTER":91.2306,"MEAN_ANOMALY":268.9146,"EPHEMERIS_TYPE":0,"CLASSIFICATION_TYPE":"U","NORAD_CAT_ID":56317,"ELEMENT_SET_NO":999,"REV_AT_EPOCH":15734,"BSTAR":1.4116308e-5,"MEAN_MOTION_DOT":1.43e-6,"MEAN_MOTION_DDOT":0},{"OBJECT_NAME":"STARLINK-5954","OBJECT_ID":"2023-058B","EPOCH":"2026-03-06T10:46:33.442752","MEAN_MOTION":15.05660308,"ECCENTRICITY":0.00020414,"INCLINATION":97.6039,"RA_OF_ASC_NODE":68.092,"ARG_OF_PERICENTER":81.3315,"MEAN_ANOMALY":278.8143,"EPHEMERIS_TYPE":0,"CLASSIFICATION_TYPE":"U","NORAD_CAT_ID":56318,"ELEMENT_SET_NO":999,"REV_AT_EPOCH":15736,"BSTAR":4.0466822e-5,"MEAN_MOTION_DOT":5.23e-6,"MEAN_MOTION_DDOT":0},{"OBJECT_NAME":"STARLINK-6039","OBJECT_ID":"2023-058C","EPOCH":"2026-03-06T14:00:01.000224","MEAN_MOTION":15.0485945,"ECCENTRICITY":0.00021637,"INCLINATION":97.6046,"RA_OF_ASC_NODE":67.1254,"ARG_OF_PERICENTER":95.2094,"MEAN_ANOMALY":184.9653,"EPHEMERIS_TYPE":0,"CLASSIFICATION_TYPE":"U","NORAD_CAT_ID":56319,"ELEMENT_SET_NO":999,"REV_AT_EPOCH":576,"BSTAR":-0.0025770434,"MEAN_MOTION_DOT":-0.00036283,"MEAN_MOTION_DDOT":0},{"OBJECT_NAME":"STARLINK-5988","OBJECT_ID":"2023-058D","EPOCH":"2026-03-06T14:40:17.437152","MEAN_MOTION":15.01263046,"ECCENTRICITY":0.0002856,"INCLINATION":97.6046,"RA_OF_ASC_NODE":67.1223,"ARG_OF_PERICENTER":68.8065,"MEAN_ANOMALY":291.3464,"EPHEMERIS_TYPE":0,"CLASSIFICATION_TYPE":"U","NORAD_CAT_ID":56320,"ELEMENT_SET_NO":999,"REV_AT_EPOCH":15732,"BSTAR":2.4490393e-5,"MEAN_MOTION_DOT":2.56e-6,"MEAN_MOTION_DDOT":0},{"OBJECT_NAME":"STARLINK-5876","OBJECT_ID":"2023-058E","EPOCH":"2026-03-06T11:02:31.116768","MEAN_MOTION":15.05597628,"ECCENTRICITY":0.00032352,"INCLINATION":97.6035,"RA_OF_ASC_NODE":68.0761,"ARG_OF_PERICENTER":131.3603,"MEAN_ANOMALY":228.7902,"EPHEMERIS_TYPE":0,"CLASSIFICATION_TYPE":"U","NORAD_CAT_ID":56321,"ELEMENT_SET_NO":999,"REV_AT_EPOCH":15736,"BSTAR":-0.0031470218,"MEAN_MOTION_DOT":-0.00045125,"MEAN_MOTION_DDOT":0}]
